{"type": "FeatureCollection", "features": [ {"type": "Feature", "properties": {"norad_id": 34071, "name": "IRIDIUM 33 DEB", "group": "iridium-33-debris", "lat": 1.7513399271364811, "lon": -157.25358881956342, "alt_km": 725.3977311568096, "timestamp": "2025-12-01T03:58:49.183769+00:00", "meta": {"OBJECT_NAME": "IRIDIUM 33 DEB", "OBJECT_ID": "1997-051CE", "EPOCH": "2025-11-30T15:33:47.015712", "MEAN_MOTION": 14.49377321, "ECCENTRICITY": 0.0009305, "INCLINATION": 86.347, "RA_OF_ASC_NODE": 23.083, "ARG_OF_PERICENTER": 140.517, "MEAN_ANOMALY": 219.6714, "EPHEMERIS_TYPE": 0, "CLASSIFICATION_TYPE": "U", "NORAD_CAT_ID": 34071, "ELEMENT_SET_NO": 999, "REV_AT_EPOCH": 88159, "BSTAR": 0.00060524, "MEAN_MOTION_DOT": 2.333e-05, "MEAN_MOTION_DDOT": 0, "GROUP": "iridium-33-debris"}, "tle": {"line1": "1 34071U 97051CE  25334.64846083  .00002333  00000+0  60524-3 0  9993", "line2": "2 34071  86.3470  23.0830 0009305 140.5170 219.6714 14.49377321881598"}}, "geometry": {"type": "Point", "coordinates": [-157.25358881956342, 1.7513399271364811]}}, {"type": "Feature", "properties": {"norad_id": 34077, "name": "IRIDIUM 33 DEB", "group": "iridium-33-debris", "lat": 74.21815513987217, "lon": -136.31545709280167, "alt_km": 664.8312672627435, "timestamp": "2025-12-01T03:58:49.183779+00:00", "meta": {"OBJECT_NAME": "IRIDIUM 33 DEB", "OBJECT_ID": "1997-051CL", "EPOCH": "2025-11-30T18:12:32.760000", "MEAN_MOTION": 14.64514823, "ECCENTRICITY": 0.0011094, "INCLINATION": 86.3868, "RA_OF_ASC_NODE": 56.7826, "ARG_OF_PERICENTER": 76.7914, "MEAN_ANOMALY": 43.3616, "EPHEMERIS_TYPE": 0, "CLASSIFICATION_TYPE": "U", "NORAD_CAT_ID": 34077, "ELEMENT_SET_NO": 999, "REV_AT_EPOCH": 88157, "BSTAR": 0.0017087, "MEAN_MOTION_DOT": 9.088e-05, "MEAN_MOTION_DDOT": 0, "GROUP": "iridium-33-debris"}, "tle": {"line1": "1 34077U 97051CL  25334.75871250  .00009088  00000+0  17087-2 0  9994", "line2": "2 34077  86.3868  56.7826 0011094  76.7914  43.3616 14.64514823881575"}}, "geometry": {"type": "Point", "coordinates": [-136.31545709280167, 74.21815513987217]}}, {"type": "Feature", "properties": {"norad_id": 34079, "name": "IRIDIUM 33 DEB", "group": "iridium-33-debris", "lat": 42.95525659492145, "lon": 17.303991178460432, "alt_km": 611.379739273465, "timestamp": "2025-12-01T03:58:49.183789+00:00", "meta": {"OBJECT_NAME": "IRIDIUM 33 DEB", "OBJECT_ID": "1997-051CN", "EPOCH": "2025-11-30T15:23:48.497856", "MEAN_MOTION": 14.8304552, "ECCENTRICITY": 0.0006954, "INCLINATION": 86.379, "RA_OF_ASC_NODE": 14.162, "ARG_OF_PERICENTER": 44.3161, "MEAN_ANOMALY": 81.3742, "EPHEMERIS_TYPE": 0, "CLASSIFICATION_TYPE": "U", "NORAD_CAT_ID": 34079, "ELEMENT_SET_NO": 999, "REV_AT_EPOCH": 88798, "BSTAR": 0.0015671, "MEAN_MOTION_DOT": 0.00012786, "MEAN_MOTION_DDOT": 0, "GROUP": "iridium-33-debris"}, "tle": {"line1": "1 34079U 97051CN  25334.64153354  .00012786  00000+0  15671-2 0  9998", "line2": "2 34079  86.3790  14.1620 0006954  44.3161  81.3742 14.83045520887982"}}, "geometry": {"type": "Point", "coordinates": [17.303991178460432, 42.95525659492145]}}, {"type": "Feature", "properties": {"norad_id": 34088, "name": "IRIDIUM 33 DEB", "group": "iridium-33-debris", "lat": 3.601524546398941, "lon": -144.19012106769324, "alt_km": 596.5995045930449, "timestamp": "2025-12-01T03:58:49.183801+00:00", "meta": {"OBJECT_NAME": "IRIDIUM 33 DEB", "OBJECT_ID": "1997-051CX", "EPOCH": "2025-11-30T16:27:07.305408", "MEAN_MOTION": 14.90453369, "ECCENTRICITY": 0.0005003, "INCLINATION": 86.3865, "RA_OF_ASC_NODE": 36.258, "ARG_OF_PERICENTER": 222.4441, "MEAN_ANOMALY": 258.1994, "EPHEMERIS_TYPE": 0, "CLASSIFICATION_TYPE": "U", "NORAD_CAT_ID": 34088, "ELEMENT_SET_NO": 999, "REV_AT_EPOCH": 88562, "BSTAR": 0.0026925, "MEAN_MOTION_DOT": 0.00026349, "MEAN_MOTION_DDOT": 0, "GROUP": "iridium-33-debris"}, "tle": {"line1": "1 34088U 97051CX  25334.68550122  .00026349  00000+0  26925-2 0  9990", "line2": "2 34088  86.3865  36.2580 0005003 222.4441 258.1994 14.90453369885623"}}, "geometry": {"type": "Point", "coordinates": [-144.19012106769324, 3.601524546398941]}}, {"type": "Feature", "properties": {"norad_id": 34091, "name": "IRIDIUM 33 DEB", "group": "iridium-33-debris", "lat": 50.68176373707599, "lon": 76.60775874555095, "alt_km": 617.7964741413325, "timestamp": "2025-12-01T03:58:49.183813+00:00", "meta": {"OBJECT_NAME": "IRIDIUM 33 DEB", "OBJECT_ID": "1997-051DA", "EPOCH": "2025-11-30T18:01:07.938048", "MEAN_MOTION": 14.80366428, "ECCENTRICITY": 0.003284, "INCLINATION": 86.3419, "RA_OF_ASC_NODE": 72.3173, "ARG_OF_PERICENTER": 336.5592, "MEAN_ANOMALY": 23.413, "EPHEMERIS_TYPE": 0, "CLASSIFICATION_TYPE": "U", "NORAD_CAT_ID": 34091, "ELEMENT_SET_NO": 999, "REV_AT_EPOCH": 87689, "BSTAR": 0.0053553, "MEAN_MOTION_DOT": 0.0004145, "MEAN_MOTION_DDOT": 0, "GROUP": "iridium-33-debris"}, "tle": {"line1": "1 34091U 97051DA  25334.75078632  .00041450  00000+0  53553-2 0  9990", "line2": "2 34091  86.3419  72.3173 0032840 336.5592  23.4130 14.80366428876896"}}, "geometry": {"type": "Point", "coordinates": [76.60775874555095, 50.68176373707599]}}, {"type": "Feature", "properties": {"norad_id": 34097, "name": "IRIDIUM 33 DEB", "group": "iridium-33-debris", "lat": 69.65316227562985, "lon": 16.836737221816097, "alt_km": 717.6397634599398, "timestamp": "2025-12-01T03:58:49.183823+00:00", "meta": {"OBJECT_NAME": "IRIDIUM 33 DEB", "OBJECT_ID": "1997-051DG", "EPOCH": "2025-11-30T14:16:07.644288", "MEAN_MOTION": 14.34633036, "ECCENTRICITY": 0.0083961, "INCLINATION": 86.2013, "RA_OF_ASC_NODE": 6.7678, "ARG_OF_PERICENTER": 41.5276, "MEAN_ANOMALY": 319.2257, "EPHEMERIS_TYPE": 0, "CLASSIFICATION_TYPE": "U", "NORAD_CAT_ID": 34097, "ELEMENT_SET_NO": 999, "REV_AT_EPOCH": 86945, "BSTAR": 0.0012387, "MEAN_MOTION_DOT": 3.662e-05, "MEAN_MOTION_DDOT": 0, "GROUP": "iridium-33-debris"}, "tle": {"line1": "1 34097U 97051DG  25334.59453292  .00003662  00000+0  12387-2 0  9990", "line2": "2 34097  86.2013   6.7678 0083961  41.5276 319.2257 14.34633036869455"}}, "geometry": {"type": "Point", "coordinates": [16.836737221816097, 69.65316227562985]}}, {"type": "Feature", "properties": {"norad_id": 34145, "name": "IRIDIUM 33 DEB", "group": "iridium-33-debris", "lat": 25.250618552624754, "lon": -20.527307506110184, "alt_km": 760.7810970754199, "timestamp": "2025-12-01T03:58:49.183834+00:00", "meta": {"OBJECT_NAME": "IRIDIUM 33 DEB", "OBJECT_ID": "1997-051DY", "EPOCH": "2025-11-30T17:52:16.750848", "MEAN_MOTION": 14.42158922, "ECCENTRICITY": 0.0055097, "INCLINATION": 86.2122, "RA_OF_ASC_NODE": 337.8696, "ARG_OF_PERICENTER": 132.0152, "MEAN_ANOMALY": 228.5759, "EPHEMERIS_TYPE": 0, "CLASSIFICATION_TYPE": "U", "NORAD_CAT_ID": 34145, "ELEMENT_SET_NO": 999, "REV_AT_EPOCH": 87465, "BSTAR": 0.00095621, "MEAN_MOTION_DOT": 3.224e-05, "MEAN_MOTION_DDOT": 0, "GROUP": "iridium-33-debris"}, "tle": {"line1": "1 34145U 97051DY  25334.74463832  .00003224  00000+0  95621-3 0  9999", "line2": "2 34145  86.2122 337.8696 0055097 132.0152 228.5759 14.42158922874658"}}, "geometry": {"type": "Point", "coordinates": [-20.527307506110184, 25.250618552624754]}}, {"type": "Feature", "properties": {"norad_id": 34146, "name": "IRIDIUM 33 DEB", "group": "iridium-33-debris", "lat": 77.06294910838784, "lon": 158.48092622936755, "alt_km": 738.7810563018502, "timestamp": "2025-12-01T03:58:49.183844+00:00", "meta": {"OBJECT_NAME": "IRIDIUM 33 DEB", "OBJECT_ID": "1997-051DZ", "EPOCH": "2025-11-30T13:11:58.398144", "MEAN_MOTION": 14.48912535, "ECCENTRICITY": 0.0024929, "INCLINATION": 86.2844, "RA_OF_ASC_NODE": 355.1855, "ARG_OF_PERICENTER": 265.4504, "MEAN_ANOMALY": 226.6628, "EPHEMERIS_TYPE": 0, "CLASSIFICATION_TYPE": "U", "NORAD_CAT_ID": 34146, "ELEMENT_SET_NO": 999, "REV_AT_EPOCH": 87930, "BSTAR": 0.00094077, "MEAN_MOTION_DOT": 3.593e-05, "MEAN_MOTION_DDOT": 0, "GROUP": "iridium-33-debris"}, "tle": {"line1": "1 34146U 97051DZ  25334.54998146  .00003593  00000+0  94077-3 0  9992", "line2": "2 34146  86.2844 355.1855 0024929 265.4504 226.6628 14.48912535879307"}}, "geometry": {"type": "Point", "coordinates": [158.48092622936755, 77.06294910838784]}}, {"type": "Feature", "properties": {"norad_id": 34159, "name": "IRIDIUM 33 DEB", "group": "iridium-33-debris", "lat": -74.08296519283951, "lon": -113.89609355588847, "alt_km": 765.7160217899964, "timestamp": "2025-12-01T03:58:49.183854+00:00", "meta": {"OBJECT_NAME": "IRIDIUM 33 DEB", "OBJECT_ID": "1997-051EN", "EPOCH": "2025-11-30T15:06:43.335072", "MEAN_MOTION": 14.38443905, "ECCENTRICITY": 0.0026688, "INCLINATION": 86.3515, "RA_OF_ASC_NODE": 53.4036, "ARG_OF_PERICENTER": 330.1297, "MEAN_ANOMALY": 29.8377, "EPHEMERIS_TYPE": 0, "CLASSIFICATION_TYPE": "U", "NORAD_CAT_ID": 34159, "ELEMENT_SET_NO": 999, "REV_AT_EPOCH": 87785, "BSTAR": 0.00042369, "MEAN_MOTION_DOT": 1.317e-05, "MEAN_MOTION_DDOT": 0, "GROUP": "iridium-33-debris"}, "tle": {"line1": "1 34159U 97051EN  25334.62966823  .00001317  00000+0  42369-3 0  9991", "line2": "2 34159  86.3515  53.4036 0026688 330.1297  29.8377 14.38443905877850"}}, "geometry": {"type": "Point", "coordinates": [-113.89609355588847, -74.08296519283951]}}]}